start=new Date('2021-09-05T00:00:00.000Z').valueOf();
sats=[{"REF_FRAME":"TEME","ARG_OF_PERICENTER":"71.7338","CENTER_NAME":"EARTH","TIME_SYSTEM":"UTC","MEAN_ELEMENT_THEORY":"SGP4","REV_AT_EPOCH":"5779","TLE_LINE2":"2 46150  53.0541 151.3286 0001812  71.7338 288.3848 15.06396349 57798","RA_OF_ASC_NODE":"151.3286","BSTAR":"0.00011170000000","ECCENTRICITY":"0.00018120","MEAN_MOTION_DOT":"0.00001382","LAUNCH_DATE":"2020-08-18","PERIAPSIS":"545.970","EPOCH":"2021-09-04T10:59:10.017312","MEAN_MOTION":"15.06396349","OBJECT_ID":"2020-057AK","FILE":"3108585","ELEMENT_SET_NO":"999","MEAN_MOTION_DDOT":"0.0000000000000","GP_ID":"184078575","TLE_LINE1":"1 46150U 20057AK  21247.45775483  .00001382  00000-0  11170-3 0  9996","NORAD_CAT_ID":"46150","OBJECT_NAME":"STARLINK-1629","SEMIMAJOR_AXIS":"6925.360","COUNTRY_CODE":"US","EPHEMERIS_TYPE":"0","MEAN_ANOMALY":"288.3848","CLASSIFICATION_TYPE":"U","RCS_SIZE":"LARGE","DECAY_DATE":null,"APOAPSIS":"548.480","PERIOD":"95.592","INCLINATION":"53.0541","SITE":"AFETR","OBJECT_TYPE":"PAYLOAD"},{"OBJECT_TYPE":"PAYLOAD","SITE":"AFETR","INCLINATION":"53.0557","PERIOD":"95.592","APOAPSIS":"548.510","RCS_SIZE":"LARGE","DECAY_DATE":null,"CLASSIFICATION_TYPE":"U","MEAN_ANOMALY":"289.8927","COUNTRY_CODE":"US","EPHEMERIS_TYPE":"0","SEMIMAJOR_AXIS":"6925.334","OBJECT_NAME":"STARLINK-1631","NORAD_CAT_ID":"46151","TLE_LINE1":"1 46151U 20057AL  21247.69918768 -.00000497  00000-0 -14477-4 0  9990","GP_ID":"184105279","MEAN_MOTION_DDOT":"0.0000000000000","ELEMENT_SET_NO":"999","FILE":"3108751","OBJECT_ID":"2020-057AL","EPOCH":"2021-09-04T16:46:49.815552","MEAN_MOTION":"15.06404678","PERIAPSIS":"545.888","LAUNCH_DATE":"2020-08-18","MEAN_MOTION_DOT":"-0.00000497","ECCENTRICITY":"0.00018930","BSTAR":"-0.00001447700000","TLE_LINE2":"2 46151  53.0557 130.2560 0001893  70.2266 289.8927 15.06404678 58105","RA_OF_ASC_NODE":"130.2560","MEAN_ELEMENT_THEORY":"SGP4","REV_AT_EPOCH":"5810","TIME_SYSTEM":"UTC","CENTER_NAME":"EARTH","ARG_OF_PERICENTER":"70.2266","REF_FRAME":"TEME"},{"INCLINATION":"53.0545","SITE":"AFETR","OBJECT_TYPE":"PAYLOAD","APOAPSIS":"548.572","PERIOD":"95.592","CLASSIFICATION_TYPE":"U","RCS_SIZE":"LARGE","DECAY_DATE":null,"COUNTRY_CODE":"US","EPHEMERIS_TYPE":"0","OBJECT_NAME":"STARLINK-1634","SEMIMAJOR_AXIS":"6925.364","MEAN_ANOMALY":"293.1441","NORAD_CAT_ID":"46152","ELEMENT_SET_NO":"999","TLE_LINE1":"1 46152U 20057AM  21247.21817640 -.00000680  00000-0 -26754-4 0  9991","MEAN_MOTION_DDOT":"0.0000000000000","GP_ID":"184077574","FILE":"3108585","MEAN_MOTION":"15.06394930","EPOCH":"2021-09-04T05:14:10.440960","OBJECT_ID":"2020-057AM","BSTAR":"-0.00002675400000","MEAN_ELEMENT_THEORY":"SGP4","REV_AT_EPOCH":"5775","RA_OF_ASC_NODE":"152.4093","TLE_LINE2":"2 46152  53.0545 152.4093 0001939  66.9752 293.1441 15.06394930 57751","LAUNCH_DATE":"2020-08-18","PERIAPSIS":"545.886","MEAN_MOTION_DOT":"-0.00000680","ECCENTRICITY":"0.00019390","ARG_OF_PERICENTER":"66.9752","CENTER_NAME":"EARTH","REF_FRAME":"TEME","TIME_SYSTEM":"UTC"},{"INCLINATION":"53.0547","SITE":"AFETR","OBJECT_TYPE":"PAYLOAD","CLASSIFICATION_TYPE":"U","DECAY_DATE":null,"RCS_SIZE":"LARGE","APOAPSIS":"548.468","PERIOD":"95.592","OBJECT_NAME":"STARLINK-1636","SEMIMAJOR_AXIS":"6925.349","EPHEMERIS_TYPE":"0","COUNTRY_CODE":"US","MEAN_ANOMALY":"289.0414","NORAD_CAT_ID":"46153","ELEMENT_SET_NO":"999","MEAN_MOTION_DDOT":"0.0000000000000","GP_ID":"184078827","TLE_LINE1":"1 46153U 20057AN  21247.38589076 -.00000587  00000-0 -20496-4 0  9992","MEAN_MOTION":"15.06399805","EPOCH":"2021-09-04T09:15:40.961664","OBJECT_ID":"2020-057AN","FILE":"3108585","MEAN_ELEMENT_THEORY":"SGP4","REV_AT_EPOCH":"5805","TLE_LINE2":"2 46153  53.0547 131.6592 0001810  71.0771 289.0414 15.06399805 58057","RA_OF_ASC_NODE":"131.6592","BSTAR":"-0.00002049600000","ECCENTRICITY":"0.00018100","MEAN_MOTION_DOT":"-0.00000587","PERIAPSIS":"545.961","LAUNCH_DATE":"2020-08-18","REF_FRAME":"TEME","ARG_OF_PERICENTER":"71.0771","CENTER_NAME":"EARTH","TIME_SYSTEM":"UTC"},{"APOAPSIS":"548.549","PERIOD":"95.592","CLASSIFICATION_TYPE":"U","DECAY_DATE":null,"RCS_SIZE":"LARGE","OBJECT_TYPE":"PAYLOAD","INCLINATION":"53.0546","SITE":"AFETR","NORAD_CAT_ID":"46154","MEAN_ANOMALY":"293.4336","EPHEMERIS_TYPE":"0","COUNTRY_CODE":"US","OBJECT_NAME":"STARLINK-1642","SEMIMAJOR_AXIS":"6925.361","FILE":"3108585","EPOCH":"2021-09-04T04:43:39.084960","MEAN_MOTION":"15.06396011","OBJECT_ID":"2020-057AP","TLE_LINE1":"1 46154U 20057AP  21247.19698015 -.00000461  00000-0 -12021-4 0  9992","MEAN_MOTION_DDOT":"0.0000000000000","GP_ID":"184079076","ELEMENT_SET_NO":"999","TIME_SYSTEM":"UTC","ARG_OF_PERICENTER":"66.6854","CENTER_NAME":"EARTH","REF_FRAME":"TEME","PERIAPSIS":"545.903","LAUNCH_DATE":"2020-08-18","ECCENTRICITY":"0.00019100","MEAN_MOTION_DOT":"-0.00000461","BSTAR":"-0.00001202100000","REV_AT_EPOCH":"5789","MEAN_ELEMENT_THEORY":"SGP4","TLE_LINE2":"2 46154  53.0546 142.5056 0001910  66.6854 293.4336 15.06396011 57895","RA_OF_ASC_NODE":"142.5056"},{"OBJECT_TYPE":"PAYLOAD","SITE":"AFETR","INCLINATION":"53.0552","PERIOD":"95.592","APOAPSIS":"548.596","DECAY_DATE":null,"RCS_SIZE":"LARGE","CLASSIFICATION_TYPE":"U","MEAN_ANOMALY":"288.6399","EPHEMERIS_TYPE":"0","COUNTRY_CODE":"US","SEMIMAJOR_AXIS":"6925.337","OBJECT_NAME":"STARLINK-1667","NORAD_CAT_ID":"46155","TLE_LINE1":"1 46155U 20057AQ  21247.35455976  .00001536  00000-0  12199-3 0  9995","MEAN_MOTION_DDOT":"0.0000000000000","GP_ID":"184077325","ELEMENT_SET_NO":"999","FILE":"3108585","OBJECT_ID":"2020-057AQ","EPOCH":"2021-09-04T08:30:33.963264","MEAN_MOTION":"15.06403905","PERIAPSIS":"545.808","LAUNCH_DATE":"2020-08-18","MEAN_MOTION_DOT":"0.00001536","ECCENTRICITY":"0.00020130","BSTAR":"0.00012199000000","RA_OF_ASC_NODE":"111.8023","TLE_LINE2":"2 46155  53.0552 111.8023 0002013  71.4808 288.6399 15.06403905 59577","REV_AT_EPOCH":"5957","MEAN_ELEMENT_THEORY":"SGP4","TIME_SYSTEM":"UTC","CENTER_NAME":"EARTH","ARG_OF_PERICENTER":"71.4808","REF_FRAME":"TEME"},{"ELEMENT_SET_NO":"999","TLE_LINE1":"1 46156U 20057AR  21247.41168686 -.00000073  00000-0  14036-4 0  9991","GP_ID":"184078075","MEAN_MOTION_DDOT":"0.0000000000000","FILE":"3108585","OBJECT_ID":"2020-057AR","EPOCH":"2021-09-04T09:52:49.744704","MEAN_MOTION":"15.06397436","BSTAR":"0.00001403600000","TLE_LINE2":"2 46156  53.0552 131.5470 0001969  67.0266 293.0930 15.06397436 59315","RA_OF_ASC_NODE":"131.5470","MEAN_ELEMENT_THEORY":"SGP4","REV_AT_EPOCH":"5931","LAUNCH_DATE":"2020-08-18","PERIAPSIS":"545.858","ECCENTRICITY":"0.00019690","MEAN_MOTION_DOT":"-0.00000073","CENTER_NAME":"EARTH","ARG_OF_PERICENTER":"67.0266","REF_FRAME":"TEME","TIME_SYSTEM":"UTC","SITE":"AFETR","INCLINATION":"53.0552","OBJECT_TYPE":"PAYLOAD","PERIOD":"95.592","APOAPSIS":"548.585","RCS_SIZE":"LARGE","DECAY_DATE":null,"CLASSIFICATION_TYPE":"U","COUNTRY_CODE":"US","EPHEMERIS_TYPE":"0","SEMIMAJOR_AXIS":"6925.356","OBJECT_NAME":"STARLINK-1545","MEAN_ANOMALY":"293.0930","NORAD_CAT_ID":"46156"},{"NORAD_CAT_ID":"46157","SEMIMAJOR_AXIS":"6925.346","OBJECT_NAME":"STARLINK-1587","COUNTRY_CODE":"US","EPHEMERIS_TYPE":"0","MEAN_ANOMALY":"287.9997","DECAY_DATE":null,"RCS_SIZE":"LARGE","CLASSIFICATION_TYPE":"U","PERIOD":"95.592","APOAPSIS":"548.455","SITE":"AFETR","INCLINATION":"53.0527","OBJECT_TYPE":"PAYLOAD","REF_FRAME":"TEME","CENTER_NAME":"EARTH","ARG_OF_PERICENTER":"72.1188","TIME_SYSTEM":"UTC","TLE_LINE2":"2 46157  53.0527 111.8970 0001796  72.1188 287.9997 15.06400672 58335","RA_OF_ASC_NODE":"111.8970","REV_AT_EPOCH":"5833","MEAN_ELEMENT_THEORY":"SGP4","BSTAR":"-0.00004087700000","ECCENTRICITY":"0.00017960","MEAN_MOTION_DOT":"-0.00000890","LAUNCH_DATE":"2020-08-18","PERIAPSIS":"545.968","OBJECT_ID":"2020-057AS","EPOCH":"2021-09-04T07:58:43.254048","MEAN_MOTION":"15.06400672","FILE":"3108585","ELEMENT_SET_NO":"999","GP_ID":"184078327","MEAN_MOTION_DDOT":"0.0000000000000","TLE_LINE1":"1 46157U 20057AS  21247.33244507 -.00000890  00000-0 -40877-4 0  9990"},{"APOAPSIS":"548.659","PERIOD":"95.593","CLASSIFICATION_TYPE":"U","DECAY_DATE":null,"RCS_SIZE":"LARGE","OBJECT_TYPE":"PAYLOAD","INCLINATION":"53.0545","SITE":"AFETR","NORAD_CAT_ID":"46158","MEAN_ANOMALY":"283.4471","COUNTRY_CODE":"US","EPHEMERIS_TYPE":"0","OBJECT_NAME":"STARLINK-1589","SEMIMAJOR_AXIS":"6925.368","FILE":"3108585","EPOCH":"2021-09-04T07:53:24.533952","MEAN_MOTION":"15.06393778","OBJECT_ID":"2020-057AT","TLE_LINE1":"1 46158U 20057AT  21247.32875618 -.00001045  00000-0 -51285-4 0  9991","MEAN_MOTION_DDOT":"0.0000000000000","GP_ID":"184078576","ELEMENT_SET_NO":"999","TIME_SYSTEM":"UTC","ARG_OF_PERICENTER":"76.6747","CENTER_NAME":"EARTH","REF_FRAME":"TEME","LAUNCH_DATE":"2020-08-18","PERIAPSIS":"545.807","MEAN_MOTION_DOT":"-0.00001045","ECCENTRICITY":"0.00020590","BSTAR":"-0.00005128500000","REV_AT_EPOCH":"5959","MEAN_ELEMENT_THEORY":"SGP4","RA_OF_ASC_NODE":"111.9146","TLE_LINE2":"2 46158  53.0545 111.9146 0002059  76.6747 283.4471 15.06393778 59590"},{"OBJECT_NAME":"STARLINK-1595","SEMIMAJOR_AXIS":"6925.362","COUNTRY_CODE":"US","EPHEMERIS_TYPE":"0","MEAN_ANOMALY":"291.4746","NORAD_CAT_ID":"46159","INCLINATION":"53.0560","SITE":"AFETR","OBJECT_TYPE":"PAYLOAD","CLASSIFICATION_TYPE":"U","RCS_SIZE":"LARGE","DECAY_DATE":null,"APOAPSIS":"548.624","PERIOD":"95.592","MEAN_ELEMENT_THEORY":"SGP4","REV_AT_EPOCH":"5904","TLE_LINE2":"2 46159  53.0560 151.4389 0002017  68.6458 291.4746 15.06395655 59040","RA_OF_ASC_NODE":"151.4389","BSTAR":"-0.00001415300000","ECCENTRICITY":"0.00020170","MEAN_MOTION_DOT":"-0.00000492","LAUNCH_DATE":"2020-08-18","PERIAPSIS":"545.830","REF_FRAME":"TEME","ARG_OF_PERICENTER":"68.6458","CENTER_NAME":"EARTH","TIME_SYSTEM":"UTC","ELEMENT_SET_NO":"999","MEAN_MOTION_DDOT":"0.0000000000000","GP_ID":"184077826","TLE_LINE1":"1 46159U 20057AU  21247.43564902 -.00000492  00000-0 -14153-4 0  9993","EPOCH":"2021-09-04T10:27:20.075328","MEAN_MOTION":"15.06395655","OBJECT_ID":"2020-057AU","FILE":"3108585"}];
